ONEWEB-0205             
1 48226U 21031S   25197.99115648 -.00000129  00000+0 -38290-3 0  9994
2 48226  87.9050 356.3880 0001663  89.9020 270.2300 13.14502877204244
ONEWEB-0206             
1 48227U 21031T   25197.88807852  .00000240  00000+0  61248-3 0  9999
2 48227  87.9047 356.3882 0001729  94.3632 265.7695 13.14503440204170
ONEWEB-0182             
1 48228U 21031U   25197.88332893 -.00001013  00000+0 -27667-2 0  9995
2 48228  87.9050 356.4332 0001810  99.4531 260.6803 13.14490162204385
ONEWEB-0186             
1 48229U 21031V   25197.89442250  .00000255  00000+0  65255-3 0  9997
2 48229  87.9051 356.3921 0001769  91.3439 268.7893 13.14503351204339
ONEWEB-0181             
1 48230U 21031W   25197.94833529 -.00000050  00000+0 -16975-3 0  9998
2 48230  87.9050 356.4533 0001843  89.0723 271.0618 13.14503836204197
ONEWEB-0188             
1 48231U 21031X   25197.98639853  .00000018  00000+0  14797-4 0  9990
2 48231  87.9051 356.4370 0001756  93.6186 266.5145 13.14502757204101
ONEWEB-0220             
1 48232U 21031Y   25197.94991877  .00000054  00000+0  11115-3 0  9994
2 48232  87.9042 356.3853 0001583  90.4886 269.6425 13.14502040204365
ONEWEB-0165             
1 48233U 21031Z   25197.90233885  .00000162  00000+0  40204-3 0  9990
2 48233  87.9051 356.4377 0001636  88.8784 271.2533 13.14504370204317
